[
    {
        "Altitude(m)": 617719.7926005407,
        "Argument of Periapsis(deg)": 0.0,
        "Eccentricity": 0.0,
        "Inclination(deg)": 60.0,
        "Latitude(deg)": -41.10269873656128,
        "Longitude(deg)": -59.90533131020609,
        "Mean Anomaly(deg)": -130.90909999999997,
        "RAAN(deg)": 190.0,
        "Satellite Name": "Test1 850",
        "Satellite Number": 850,
        "Semi-Major Axis(m)": 6980739.136638005,
        "Time(s)": 0
    },
    {
        "Altitude(m)": 617911.328468945,
        "Argument of Periapsis(deg)": 0.00010418945913296404,
        "Eccentricity": 0.0,
        "Inclination(deg)": 60.0,
        "Latitude(deg)": -41.56589048411486,
        "Longitude(deg)": -59.400923951974626,
        "Mean Anomaly(deg)": -130.28899385453812,
        "RAAN(deg)": 189.99957995086027,
        "Satellite Name": "Test1 850",
        "Satellite Number": 850,
        "Semi-Major Axis(m)": 6980739.136638005,
        "Time(s)": 10
    },
    {
        "Altitude(m)": 618101.7391016159,
        "Argument of Periapsis(deg)": 0.0002083789182659281,
        "Eccentricity": 0.0,
        "Inclination(deg)": 60.0,
        "Latitude(deg)": -42.02640371932361,
        "Longitude(deg)": -58.88870918693015,
        "Mean Anomaly(deg)": -129.6688877090763,
        "RAAN(deg)": 189.99915990172053,
        "Satellite Name": "Test1 850",
        "Satellite Number": 850,
        "Semi-Major Axis(m)": 6980739.136638005,
        "Time(s)": 20
    },
    {
        "Altitude(m)": 618290.9514712729,
        "Argument of Periapsis(deg)": 0.00031256837739889213,
        "Eccentricity": 0.0,
        "Inclination(deg)": 60.0,
        "Latitude(deg)": -42.48415819514142,
        "Longitude(deg)": -58.36849232927862,
        "Mean Anomaly(deg)": -129.0487815636145,
        "RAAN(deg)": 189.9987398525808,
        "Satellite Name": "Test1 850",
        "Satellite Number": 850,
        "Semi-Major Axis(m)": 6980739.136638005,
        "Time(s)": 30
    },
    {
        "Altitude(m)": 618478.8929278523,
        "Argument of Periapsis(deg)": 0.0004167578365318562,
        "Eccentricity": 0.0,
        "Inclination(deg)": 60.0,
        "Latitude(deg)": -42.93907113945713,
        "Longitude(deg)": -57.84007489956178,
        "Mean Anomaly(deg)": -128.4286754181526,
        "RAAN(deg)": 189.99831980344103,
        "Satellite Name": "Test1 850",
        "Satellite Number": 850,
        "Semi-Major Axis(m)": 6980739.136638005,
        "Time(s)": 40
    },
    {
        "Altitude(m)": 618665.4912301657,
        "Argument of Periapsis(deg)": 0.0005209472956648203,
        "Eccentricity": 0.0,
        "Inclination(deg)": 60.0,
        "Latitude(deg)": -43.391057176982244,
        "Longitude(deg)": -57.30325572257794,
        "Mean Anomaly(deg)": -127.80856927269087,
        "RAAN(deg)": 189.9978997543013,
        "Satellite Name": "Test1 850",
        "Satellite Number": 850,
        "Semi-Major Axis(m)": 6980739.136638005,
        "Time(s)": 50
    },
    {
        "Altitude(m)": 618850.6745773457,
        "Argument of Periapsis(deg)": 0.0006251367547977843,
        "Eccentricity": 0.0,
        "Inclination(deg)": 60.0,
        "Latitude(deg)": -43.840028250497284,
        "Longitude(deg)": -56.7578305321771,
        "Mean Anomaly(deg)": -127.18846312722899,
        "RAAN(deg)": 189.99747970516157,
        "Satellite Name": "Test1 850",
        "Satellite Number": 850,
        "Semi-Major Axis(m)": 6980739.136638005,
        "Time(s)": 60
    },
    {
        "Altitude(m)": 619034.3716400843,
        "Argument of Periapsis(deg)": 0.0007293262139307483,
        "Eccentricity": 0.0,
        "Inclination(deg)": 60.0,
        "Latitude(deg)": -44.28589354168806,
        "Longitude(deg)": -56.20359159767572,
        "Mean Anomaly(deg)": -126.56835698176718,
        "RAAN(deg)": 189.99705965602183,
        "Satellite Name": "Test1 850",
        "Satellite Number": 850,
        "Semi-Major Axis(m)": 6980739.136638005,
        "Time(s)": 70
    },
    {
        "Altitude(m)": 619216.5115916329,
        "Argument of Periapsis(deg)": 0.0008335156730637124,
        "Eccentricity": 0.0,
        "Inclination(deg)": 60.0,
        "Latitude(deg)": -44.72855939184163,
        "Longitude(deg)": -55.640328886749394,
        "Mean Anomaly(deg)": -125.94825083630536,
        "RAAN(deg)": 189.99663960688207,
        "Satellite Name": "Test1 850",
        "Satellite Number": 850,
        "Semi-Major Axis(m)": 6980739.136638005,
        "Time(s)": 80
    },
    {
        "Altitude(m)": 619397.0241385825,
        "Argument of Periapsis(deg)": 0.0009377051321966765,
        "Eccentricity": 0.0,
        "Inclination(deg)": 60.0,
        "Latitude(deg)": -45.167929222699954,
        "Longitude(deg)": -55.06782974116127,
        "Mean Anomaly(deg)": -125.32814469084352,
        "RAAN(deg)": 189.99621955774234,
        "Satellite Name": "Test1 850",
        "Satellite Number": 850,
        "Semi-Major Axis(m)": 6980739.136638005,
        "Time(s)": 90
    },
    {
        "Altitude(m)": 619575.8395513545,
        "Argument of Periapsis(deg)": 0.0010418945913296407,
        "Eccentricity": 0.0,
        "Inclination(deg)": 60.0,
        "Latitude(deg)": -45.60390345781597,
        "Longitude(deg)": -54.48587858042374,
        "Mean Anomaly(deg)": -124.70803854538167,
        "RAAN(deg)": 189.99579950860257,
        "Satellite Name": "Test1 850",
        "Satellite Number": 850,
        "Semi-Major Axis(m)": 6980739.136638005,
        "Time(s)": 100
    },
    {
        "Altitude(m)": 619752.8886944406,
        "Argument of Periapsis(deg)": 0.0011460840504626045,
        "Eccentricity": 0.0,
        "Inclination(deg)": 60.0,
        "Latitude(deg)": -46.036379444797596,
        "Longitude(deg)": -53.89425814861474,
        "Mean Anomaly(deg)": -124.08793239991982,
        "RAAN(deg)": 189.9953794594628,
        "Satellite Name": "Test1 850",
        "Satellite Number": 850,
        "Semi-Major Axis(m)": 6980739.136638005,
        "Time(s)": 110
    },
    {
        "Altitude(m)": 619928.1030563563,
        "Argument of Periapsis(deg)": 0.0012502735095955685,
        "Eccentricity": 0.0,
        "Inclination(deg)": 60.0,
        "Latitude(deg)": -46.46525137886906,
        "Longitude(deg)": -53.29274928105232,
        "Mean Anomaly(deg)": -123.467826254458,
        "RAAN(deg)": 189.9949594103231,
        "Satellite Name": "Test1 850",
        "Satellite Number": 850,
        "Semi-Major Axis(m)": 6980739.136638005,
        "Time(s)": 120
    },
    {
        "Altitude(m)": 620101.4147793002,
        "Argument of Periapsis(deg)": 0.0013544629687285324,
        "Eccentricity": 0.0,
        "Inclination(deg)": 60.0,
        "Latitude(deg)": -46.89041022823211,
        "Longitude(deg)": -52.68113070626716,
        "Mean Anomaly(deg)": -122.84772010899616,
        "RAAN(deg)": 189.99453936118337,
        "Satellite Name": "Test1 850",
        "Satellite Number": 850,
        "Semi-Major Axis(m)": 6980739.136638005,
        "Time(s)": 130
    },
    {
        "Altitude(m)": 620272.756688517,
        "Argument of Periapsis(deg)": 0.0014586524278614966,
        "Eccentricity": 0.0,
        "Inclination(deg)": 60.0,
        "Latitude(deg)": -47.311743661763565,
        "Longitude(deg)": -52.059180398812956,
        "Mean Anomaly(deg)": -122.22761396353437,
        "RAAN(deg)": 189.9941193120436,
        "Satellite Name": "Test1 850",
        "Satellite Number": 850,
        "Semi-Major Axis(m)": 6980739.136638005,
        "Time(s)": 140
    },
    {
        "Altitude(m)": 620442.0623213074,
        "Argument of Periapsis(deg)": 0.0015628418869944607,
        "Eccentricity": 0.0,
        "Inclination(deg)": 60.0,
        "Latitude(deg)": -47.7291359796391,
        "Longitude(deg)": -51.42667545991097,
        "Mean Anomaly(deg)": -121.60750781807252,
        "RAAN(deg)": 189.99369926290385,
        "Satellite Name": "Test1 850",
        "Satellite Number": 850,
        "Semi-Major Axis(m)": 6980739.136638005,
        "Time(s)": 150
    },
    {
        "Altitude(m)": 620609.2659557585,
        "Argument of Periapsis(deg)": 0.0016670313461274247,
        "Eccentricity": 0.0,
        "Inclination(deg)": 60.0,
        "Latitude(deg)": -48.142468047535715,
        "Longitude(deg)": -50.78339204163056,
        "Mean Anomaly(deg)": -120.98740167261073,
        "RAAN(deg)": 189.99327921376414,
        "Satellite Name": "Test1 850",
        "Satellite Number": 850,
        "Semi-Major Axis(m)": 6980739.136638005,
        "Time(s)": 160
    },
    {
        "Altitude(m)": 620774.3026390753,
        "Argument of Periapsis(deg)": 0.0017712208052603888,
        "Eccentricity": 0.0,
        "Inclination(deg)": 60.0,
        "Latitude(deg)": -48.55161723513364,
        "Longitude(deg)": -50.12910683035177,
        "Mean Anomaly(deg)": -120.3672955271489,
        "RAAN(deg)": 189.9928591646244,
        "Satellite Name": "Test1 850",
        "Satellite Number": 850,
        "Semi-Major Axis(m)": 6980739.136638005,
        "Time(s)": 170
    },
    {
        "Altitude(m)": 620937.1082156037,
        "Argument of Periapsis(deg)": 0.001875410264393353,
        "Eccentricity": 0.0,
        "Inclination(deg)": 60.0,
        "Latitude(deg)": -48.956457359696365,
        "Longitude(deg)": -49.463597066666175,
        "Mean Anomaly(deg)": -119.74718938168705,
        "RAAN(deg)": 189.99243911548464,
        "Satellite Name": "Test1 850",
        "Satellite Number": 850,
        "Semi-Major Axis(m)": 6980739.136638005,
        "Time(s)": 180
    },
    {
        "Altitude(m)": 621097.6193544584,
        "Argument of Periapsis(deg)": 0.0019795997235263173,
        "Eccentricity": 0.0,
        "Inclination(deg)": 60.0,
        "Latitude(deg)": -49.356858635586065,
        "Longitude(deg)": -48.7866406174938,
        "Mean Anomaly(deg)": -119.1270832362252,
        "RAAN(deg)": 189.99201906634488,
        "Satellite Name": "Test1 850",
        "Satellite Number": 850,
        "Semi-Major Axis(m)": 6980739.136638005,
        "Time(s)": 190
    }
]